CCSDS_OMM_VERS = 2.0
CREATION_DATE  = 
ORIGINATOR     = 

OBJECT_NAME    = STARLINK-36427
OBJECT_ID      = 2026-002AE
CENTER_NAME    = EARTH
REF_FRAME      = TEME
TIME_SYSTEM    = UTC
MEAN_ELEMENT_THEORY = SGP/SGP4

EPOCH          = 2026-01-16T14:00:03.000384
MEAN_MOTION    = 15.91739469
ECCENTRICITY   = .00018152
INCLINATION    = 42.9958
RA_OF_ASC_NODE = 265.5125
ARG_OF_PERICENTER = 263.9898
MEAN_ANOMALY   = 15.0708

EPHEMERIS_TYPE = 0
CLASSIFICATION_TYPE = U
NORAD_CAT_ID   = 67333
ELEMENT_SET_NO = 999
REV_AT_EPOCH   = 310
BSTAR          = -.51193043E-2
MEAN_MOTION_DOT = -.1728726E-1
MEAN_MOTION_DDOT = .82192185E-3

CCSDS_OMM_VERS = 2.0
CREATION_DATE  = 
ORIGINATOR     = 

OBJECT_NAME    = STARLINK-35343
OBJECT_ID      = 2026-003A
CENTER_NAME    = EARTH
REF_FRAME      = TEME
TIME_SYSTEM    = UTC
MEAN_ELEMENT_THEORY = SGP/SGP4

EPOCH          = 2026-01-11T22:34:53.424768
MEAN_MOTION    = 16.01646204
ECCENTRICITY   = .00086
INCLINATION    = 43.0100
RA_OF_ASC_NODE = 74.1123
ARG_OF_PERICENTER = 321.9700
MEAN_ANOMALY   = 11.3500

EPHEMERIS_TYPE = 0
CLASSIFICATION_TYPE = U
NORAD_CAT_ID   = 67334
ELEMENT_SET_NO = 999
REV_AT_EPOCH   = 1
BSTAR          = 0
MEAN_MOTION_DOT = -.2702E-4
MEAN_MOTION_DDOT = .8542696E-5

CCSDS_OMM_VERS = 2.0
CREATION_DATE  = 
ORIGINATOR     = 

OBJECT_NAME    = STARLINK-36486
OBJECT_ID      = 2026-003B
CENTER_NAME    = EARTH
REF_FRAME      = TEME
TIME_SYSTEM    = UTC
MEAN_ELEMENT_THEORY = SGP/SGP4

EPOCH          = 2026-01-11T22:34:53.424768
MEAN_MOTION    = 16.01646204
ECCENTRICITY   = .00086
INCLINATION    = 43.0100
RA_OF_ASC_NODE = 74.1123
ARG_OF_PERICENTER = 321.9700
MEAN_ANOMALY   = 11.3500

EPHEMERIS_TYPE = 0
CLASSIFICATION_TYPE = U
NORAD_CAT_ID   = 67335
ELEMENT_SET_NO = 999
REV_AT_EPOCH   = 1
BSTAR          = 0
MEAN_MOTION_DOT = -.2702E-4
MEAN_MOTION_DDOT = .8542696E-5

CCSDS_OMM_VERS = 2.0
CREATION_DATE  = 
ORIGINATOR     = 

OBJECT_NAME    = STARLINK-36480
OBJECT_ID      = 2026-003C
CENTER_NAME    = EARTH
REF_FRAME      = TEME
TIME_SYSTEM    = UTC
MEAN_ELEMENT_THEORY = SGP/SGP4

EPOCH          = 2026-01-11T22:34:53.424768
MEAN_MOTION    = 16.01646204
ECCENTRICITY   = .00086
INCLINATION    = 43.0100
RA_OF_ASC_NODE = 74.1123
ARG_OF_PERICENTER = 321.9700
MEAN_ANOMALY   = 11.3500

EPHEMERIS_TYPE = 0
CLASSIFICATION_TYPE = U
NORAD_CAT_ID   = 67336
ELEMENT_SET_NO = 999
REV_AT_EPOCH   = 1
BSTAR          = 0
MEAN_MOTION_DOT = -.2702E-4
MEAN_MOTION_DDOT = .8542696E-5

CCSDS_OMM_VERS = 2.0
CREATION_DATE  = 
ORIGINATOR     = 

OBJECT_NAME    = STARLINK-36410
OBJECT_ID      = 2026-003D
CENTER_NAME    = EARTH
REF_FRAME      = TEME
TIME_SYSTEM    = UTC
MEAN_ELEMENT_THEORY = SGP/SGP4

EPOCH          = 2026-01-11T22:34:53.424768
MEAN_MOTION    = 16.01646204
ECCENTRICITY   = .00086
INCLINATION    = 43.0100
RA_OF_ASC_NODE = 74.1123
ARG_OF_PERICENTER = 321.9700
MEAN_ANOMALY   = 11.3500

EPHEMERIS_TYPE = 0
CLASSIFICATION_TYPE = U
NORAD_CAT_ID   = 67337
ELEMENT_SET_NO = 999
REV_AT_EPOCH   = 1
BSTAR          = 0
MEAN_MOTION_DOT = -.2702E-4
MEAN_MOTION_DDOT = .8542696E-5

CCSDS_OMM_VERS = 2.0
CREATION_DATE  = 
ORIGINATOR     = 

OBJECT_NAME    = STARLINK-36413
OBJECT_ID      = 2026-003E
CENTER_NAME    = EARTH
REF_FRAME      = TEME
TIME_SYSTEM    = UTC
MEAN_ELEMENT_THEORY = SGP/SGP4

EPOCH          = 2026-01-11T22:34:53.424768
MEAN_MOTION    = 16.01646204
ECCENTRICITY   = .00086
INCLINATION    = 43.0100
RA_OF_ASC_NODE = 74.1123
ARG_OF_PERICENTER = 321.9700
MEAN_ANOMALY   = 11.3500

EPHEMERIS_TYPE = 0
CLASSIFICATION_TYPE = U
NORAD_CAT_ID   = 67338
ELEMENT_SET_NO = 999
REV_AT_EPOCH   = 1
BSTAR          = 0
MEAN_MOTION_DOT = -.2702E-4
MEAN_MOTION_DDOT = .8542696E-5

CCSDS_OMM_VERS = 2.0
CREATION_DATE  = 
ORIGINATOR     = 

OBJECT_NAME    = STARLINK-36451
OBJECT_ID      = 2026-003F
CENTER_NAME    = EARTH
REF_FRAME      = TEME
TIME_SYSTEM    = UTC
MEAN_ELEMENT_THEORY = SGP/SGP4

EPOCH          = 2026-01-11T22:34:53.424768
MEAN_MOTION    = 16.01646204
ECCENTRICITY   = .00086
INCLINATION    = 43.0100
RA_OF_ASC_NODE = 74.1123
ARG_OF_PERICENTER = 321.9700
MEAN_ANOMALY   = 11.3500

EPHEMERIS_TYPE = 0
CLASSIFICATION_TYPE = U
NORAD_CAT_ID   = 67339
ELEMENT_SET_NO = 999
REV_AT_EPOCH   = 1
BSTAR          = 0
MEAN_MOTION_DOT = -.2702E-4
MEAN_MOTION_DDOT = .8542696E-5

CCSDS_OMM_VERS = 2.0
CREATION_DATE  = 
ORIGINATOR     = 

OBJECT_NAME    = STARLINK-36339
OBJECT_ID      = 2026-003G
CENTER_NAME    = EARTH
REF_FRAME      = TEME
TIME_SYSTEM    = UTC
MEAN_ELEMENT_THEORY = SGP/SGP4

EPOCH          = 2026-01-11T22:34:53.424768
MEAN_MOTION    = 16.01646204
ECCENTRICITY   = .00086
INCLINATION    = 43.0100
RA_OF_ASC_NODE = 74.1123
ARG_OF_PERICENTER = 321.9700
MEAN_ANOMALY   = 11.3500

EPHEMERIS_TYPE = 0
CLASSIFICATION_TYPE = U
NORAD_CAT_ID   = 67340
ELEMENT_SET_NO = 999
REV_AT_EPOCH   = 1
BSTAR          = 0
MEAN_MOTION_DOT = -.2702E-4
MEAN_MOTION_DDOT = .8542696E-5

CCSDS_OMM_VERS = 2.0
CREATION_DATE  = 
ORIGINATOR     = 

OBJECT_NAME    = STARLINK-36453
OBJECT_ID      = 2026-003H
CENTER_NAME    = EARTH
REF_FRAME      = TEME
TIME_SYSTEM    = UTC
MEAN_ELEMENT_THEORY = SGP/SGP4

EPOCH          = 2026-01-11T22:34:53.424768
MEAN_MOTION    = 16.01646204
ECCENTRICITY   = .00086
INCLINATION    = 43.0100
RA_OF_ASC_NODE = 74.1123
ARG_OF_PERICENTER = 321.9700
MEAN_ANOMALY   = 11.3500

EPHEMERIS_TYPE = 0
CLASSIFICATION_TYPE = U
NORAD_CAT_ID   = 67341
ELEMENT_SET_NO = 999
REV_AT_EPOCH   = 1
BSTAR          = 0
MEAN_MOTION_DOT = -.2702E-4
MEAN_MOTION_DDOT = .8542696E-5

CCSDS_OMM_VERS = 2.0
CREATION_DATE  = 
ORIGINATOR     = 

OBJECT_NAME    = STARLINK-36432
OBJECT_ID      = 2026-003J
CENTER_NAME    = EARTH
REF_FRAME      = TEME
TIME_SYSTEM    = UTC
MEAN_ELEMENT_THEORY = SGP/SGP4

EPOCH          = 2026-01-11T22:34:53.424768
MEAN_MOTION    = 16.01646204
ECCENTRICITY   = .00086
INCLINATION    = 43.0100
RA_OF_ASC_NODE = 74.1123
ARG_OF_PERICENTER = 321.9700
MEAN_ANOMALY   = 11.3500

EPHEMERIS_TYPE = 0
CLASSIFICATION_TYPE = U
NORAD_CAT_ID   = 67342
ELEMENT_SET_NO = 999
REV_AT_EPOCH   = 1
BSTAR          = 0
MEAN_MOTION_DOT = -.2702E-4
MEAN_MOTION_DDOT = .8542696E-5

CCSDS_OMM_VERS = 2.0
CREATION_DATE  = 
ORIGINATOR     = 

OBJECT_NAME    = STARLINK-36458
OBJECT_ID      = 2026-003K
CENTER_NAME    = EARTH
REF_FRAME      = TEME
TIME_SYSTEM    = UTC
MEAN_ELEMENT_THEORY = SGP/SGP4

EPOCH          = 2026-01-11T22:34:53.424768
MEAN_MOTION    = 16.01646204
ECCENTRICITY   = .00086
INCLINATION    = 43.0100
RA_OF_ASC_NODE = 74.1123
ARG_OF_PERICENTER = 321.9700
MEAN_ANOMALY   = 11.3500

EPHEMERIS_TYPE = 0
CLASSIFICATION_TYPE = U
NORAD_CAT_ID   = 67343
ELEMENT_SET_NO = 999
REV_AT_EPOCH   = 1
BSTAR          = 0
MEAN_MOTION_DOT = -.2702E-4
MEAN_MOTION_DDOT = .8542696E-5

CCSDS_OMM_VERS = 2.0
CREATION_DATE  = 
ORIGINATOR     = 

OBJECT_NAME    = STARLINK-36422
OBJECT_ID      = 2026-003L
CENTER_NAME    = EARTH
REF_FRAME      = TEME
TIME_SYSTEM    = UTC
MEAN_ELEMENT_THEORY = SGP/SGP4

EPOCH          = 2026-01-11T22:34:53.424768
MEAN_MOTION    = 16.01646204
ECCENTRICITY   = .00086
INCLINATION    = 43.0100
RA_OF_ASC_NODE = 74.1123
ARG_OF_PERICENTER = 321.9700
MEAN_ANOMALY   = 11.3500

EPHEMERIS_TYPE = 0
CLASSIFICATION_TYPE = U
NORAD_CAT_ID   = 67344
ELEMENT_SET_NO = 999
REV_AT_EPOCH   = 1
BSTAR          = 0
MEAN_MOTION_DOT = -.2702E-4
MEAN_MOTION_DDOT = .8542696E-5

